{
    "links": {
        "self": "http://www.neowsapp.com/rest/v1/neo/3575163?api_key=iIulBulltgU6a56xZRHN4H3l9WmuAYTsLGpBGhQ2"
    },
    "id": "3575163",
    "neo_reference_id": "3575163",
    "name": "(2011 OK45)",
    "designation": "2011 OK45",
    "nasa_jpl_url": "http://ssd.jpl.nasa.gov/sbdb.cgi?sstr=3575163",
    "absolute_magnitude_h": 27.6,
    "estimated_diameter": {
        "kilometers": {
            "estimated_diameter_min": 0.0080270317,
            "estimated_diameter_max": 0.0179489885
        },
        "meters": {
            "estimated_diameter_min": 8.0270316728,
            "estimated_diameter_max": 17.948988478
        },
        "miles": {
            "estimated_diameter_min": 0.0049877647,
            "estimated_diameter_max": 0.0111529809
        },
        "feet": {
            "estimated_diameter_min": 26.3354065935,
            "estimated_diameter_max": 58.8877593581
        }
    },
    "is_potentially_hazardous_asteroid": false,
    "close_approach_data": [
        {
            "close_approach_date": "1938-04-27",
            "close_approach_date_full": "1938-Apr-27 22:26",
            "epoch_date_close_approach": -999740040000,
            "relative_velocity": {
                "kilometers_per_second": "11.9209377692",
                "kilometers_per_hour": "42915.3759689897",
                "miles_per_hour": "26665.9456958425"
            },
            "miss_distance": {
                "astronomical": "0.2819250149",
                "lunar": "109.6688307961",
                "kilometers": "42175381.728758263",
                "miles": "26206566.9915915094"
            },
            "orbiting_body": "Earth"
        },
        {
            "close_approach_date": "1973-08-13",
            "close_approach_date_full": "1973-Aug-13 15:02",
            "epoch_date_close_approach": 114102120000,
            "relative_velocity": {
                "kilometers_per_second": "13.1143171966",
                "kilometers_per_hour": "47211.5419077049",
                "miles_per_hour": "29335.4161370403"
            },
            "miss_distance": {
                "astronomical": "0.3161163544",
                "lunar": "122.9692618616",
                "kilometers": "47290333.290405128",
                "miles": "29384850.5130336464"
            },
            "orbiting_body": "Earth"
        },
        {
            "close_approach_date": "2008-08-22",
            "close_approach_date_full": "2008-Aug-22 13:33",
            "epoch_date_close_approach": 1219411980000,
            "relative_velocity": {
                "kilometers_per_second": "18.0800549",
                "kilometers_per_hour": "65088.1976401746",
                "miles_per_hour": "40443.2748059185"
            },
            "miss_distance": {
                "astronomical": "0.4884501304",
                "lunar": "190.0071007256",
                "kilometers": "73071099.109062248",
                "miles": "45404275.5621371024"
            },
            "orbiting_body": "Earth"
        },
        {
            "close_approach_date": "2011-07-12",
            "close_approach_date_full": "2011-Jul-12 07:13",
            "epoch_date_close_approach": 1310454780000,
            "relative_velocity": {
                "kilometers_per_second": "4.0162352",
                "kilometers_per_hour": "14458.4467199278",
                "miles_per_hour": "8983.9165188352"
            },
            "miss_distance": {
                "astronomical": "0.0145770814",
                "lunar": "5.6704846646",
                "kilometers": "2180700.328256618",
                "miles": "1355024.3506646084"
            },
            "orbiting_body": "Earth"
        },
        {
            "close_approach_date": "2014-04-26",
            "close_approach_date_full": "2014-Apr-26 20:31",
            "epoch_date_close_approach": 1398544260000,
            "relative_velocity": {
                "kilometers_per_second": "13.4373282665",
                "kilometers_per_hour": "48374.3817593924",
                "miles_per_hour": "30057.9595993292"
            },
            "miss_distance": {
                "astronomical": "0.3333794887",
                "lunar": "129.6846211043",
                "kilometers": "49872861.411209069",
                "miles": "30989559.0759763922"
            },
            "orbiting_body": "Earth"
        }
    ],
    "orbital_data": {
        "orbit_id": "5",
        "orbit_determination_date": "2017-04-06 08:53:04",
        "first_observation_date": "2011-07-28",
        "last_observation_date": "2011-08-03",
        "data_arc_in_days": 6,
        "observations_used": 10,
        "orbit_uncertainty": "8",
        "minimum_orbit_intersection": ".014022",
        "jupiter_tisserand_invariant": "5.001",
        "epoch_osculation": "2455771.5",
        "eccentricity": ".2144596215544679",
        "semi_major_axis": "1.291377641275328",
        "inclination": "2.873000675671574",
        "ascending_node_longitude": "300.0752573341251",
        "orbital_period": "536.0167005344548",
        "perihelion_distance": "1.01442928104352",
        "perihelion_argument": "327.5698127577194",
        "aphelion_distance": "1.568326001507136",
        "perihelion_time": "2455734.284798141259",
        "mean_anomaly": "24.99450605883795",
        "mean_motion": ".6716208648742642",
        "equinox": "J2000",
        "orbit_class": {
            "orbit_class_type": "APO",
            "orbit_class_description": "Near-Earth asteroid orbits which cross the Earth’s orbit similar to that of 1862 Apollo",
            "orbit_class_range": "a (semi-major axis) > 1.0 AU; q (perihelion) < 1.017 AU"
        }
    },
    "is_sentry_object": false
}